[{"OBJECT_NAME":"ONEWEB-0670","OBJECT_ID":"2023-029AK","EPOCH":"2025-12-20T04:23:54.203136","MEAN_MOTION":13.14503513,"ECCENTRICITY":0.00021946,"INCLINATION":87.8994,"RA_OF_ASC_NODE":325.4191,"ARG_OF_PERICENTER":84.8987,"MEAN_ANOMALY":275.2393,"EPHEMERIS_TYPE":0,"CLASSIFICATION_TYPE":"U","NORAD_CAT_ID":55829,"ELEMENT_SET_NO":999,"REV_AT_EPOCH":13591,"BSTAR":-0.0005556804,"MEAN_MOTION_DOT":-1.93e-6,"MEAN_MOTION_DDOT":0},{"OBJECT_NAME":"ONEWEB-0671","OBJECT_ID":"2023-029AL","EPOCH":"2025-12-20T05:04:49.609056","MEAN_MOTION":13.19726653,"ECCENTRICITY":0.00019845,"INCLINATION":87.9198,"RA_OF_ASC_NODE":340.5909,"ARG_OF_PERICENTER":83.8878,"MEAN_ANOMALY":276.2481,"EPHEMERIS_TYPE":0,"CLASSIFICATION_TYPE":"U","NORAD_CAT_ID":55830,"ELEMENT_SET_NO":999,"REV_AT_EPOCH":13529,"BSTAR":0.00014799527,"MEAN_MOTION_DOT":7.2e-7,"MEAN_MOTION_DDOT":0},{"OBJECT_NAME":"ONEWEB-0672","OBJECT_ID":"2023-029AM","EPOCH":"2025-12-19T22:17:28.768416","MEAN_MOTION":13.20770095,"ECCENTRICITY":0.0001687,"INCLINATION":87.9209,"RA_OF_ASC_NODE":310.1859,"ARG_OF_PERICENTER":87.2999,"MEAN_ANOMALY":272.8328,"EPHEMERIS_TYPE":0,"CLASSIFICATION_TYPE":"U","NORAD_CAT_ID":55831,"ELEMENT_SET_NO":999,"REV_AT_EPOCH":13748,"BSTAR":-0.00026253,"MEAN_MOTION_DOT":-9.4e-7,"MEAN_MOTION_DDOT":0},{"OBJECT_NAME":"ONEWEB-0673","OBJECT_ID":"2023-029AN","EPOCH":"2025-12-20T00:53:30.585984","MEAN_MOTION":13.19726488,"ECCENTRICITY":0.00019262,"INCLINATION":87.9213,"RA_OF_ASC_NODE":340.6066,"ARG_OF_PERICENTER":85.6396,"MEAN_ANOMALY":274.4957,"EPHEMERIS_TYPE":0,"CLASSIFICATION_TYPE":"U","NORAD_CAT_ID":55832,"ELEMENT_SET_NO":999,"REV_AT_EPOCH":13527,"BSTAR":-0.00021202459,"MEAN_MOTION_DOT":-7.2e-7,"MEAN_MOTION_DDOT":0},{"OBJECT_NAME":"ONEWEB-0674","OBJECT_ID":"2023-029AP","EPOCH":"2025-12-19T23:59:00.294144","MEAN_MOTION":13.1450375,"ECCENTRICITY":0.00022861,"INCLINATION":87.899,"RA_OF_ASC_NODE":325.4333,"ARG_OF_PERICENTER":87.3115,"MEAN_ANOMALY":272.8277,"EPHEMERIS_TYPE":0,"CLASSIFICATION_TYPE":"U","NORAD_CAT_ID":55833,"ELEMENT_SET_NO":999,"REV_AT_EPOCH":13587,"BSTAR":0.00024654955,"MEAN_MOTION_DOT":1.04e-6,"MEAN_MOTION_DDOT":0},{"OBJECT_NAME":"ONEWEB-0675","OBJECT_ID":"2023-029AQ","EPOCH":"2025-12-19T23:25:56.455104","MEAN_MOTION":13.19725384,"ECCENTRICITY":0.0001528,"INCLINATION":87.9193,"RA_OF_ASC_NODE":340.6455,"ARG_OF_PERICENTER":86.0718,"MEAN_ANOMALY":274.0589,"EPHEMERIS_TYPE":0,"CLASSIFICATION_TYPE":"U","NORAD_CAT_ID":55834,"ELEMENT_SET_NO":999,"REV_AT_EPOCH":13528,"BSTAR":-6.9564e-6,"MEAN_MOTION_DOT":1.0e-7,"MEAN_MOTION_DDOT":0},{"OBJECT_NAME":"ONEWEB-0720","OBJECT_ID":"2023-029AR","EPOCH":"2025-12-20T01:03:44.463168","MEAN_MOTION":13.19725293,"ECCENTRICITY":0.00019708,"INCLINATION":87.9193,"RA_OF_ASC_NODE":340.6304,"ARG_OF_PERICENTER":76.2734,"MEAN_ANOMALY":283.8618,"EPHEMERIS_TYPE":0,"CLASSIFICATION_TYPE":"U","NORAD_CAT_ID":55835,"ELEMENT_SET_NO":999,"REV_AT_EPOCH":13521,"BSTAR":-0.00021974115,"MEAN_MOTION_DOT":-7.5e-7,"MEAN_MOTION_DDOT":0},{"OBJECT_NAME":"ONEWEB-0537","OBJECT_ID":"2023-043A","EPOCH":"2025-12-19T16:33:16.288704","MEAN_MOTION":13.16596064,"ECCENTRICITY":0.00014449,"INCLINATION":87.9053,"RA_OF_ASC_NODE":264.5124,"ARG_OF_PERICENTER":76.3525,"MEAN_ANOMALY":283.7767,"EPHEMERIS_TYPE":0,"CLASSIFICATION_TYPE":"U","NORAD_CAT_ID":56046,"ELEMENT_SET_NO":999,"REV_AT_EPOCH":13534,"BSTAR":0.00010382898,"MEAN_MOTION_DOT":5.3e-7,"MEAN_MOTION_DDOT":0},{"OBJECT_NAME":"ONEWEB-0538","OBJECT_ID":"2023-043B","EPOCH":"2025-12-20T05:10:11.112960","MEAN_MOTION":13.16596909,"ECCENTRICITY":0.00014813,"INCLINATION":87.9047,"RA_OF_ASC_NODE":264.4115,"ARG_OF_PERICENTER":65.1047,"MEAN_ANOMALY":295.0237,"EPHEMERIS_TYPE":0,"CLASSIFICATION_TYPE":"U","NORAD_CAT_ID":56047,"ELEMENT_SET_NO":999,"REV_AT_EPOCH":13542,"BSTAR":0.00040377014,"MEAN_MOTION_DOT":1.67e-6,"MEAN_MOTION_DDOT":0},{"OBJECT_NAME":"ONEWEB-0546","OBJECT_ID":"2023-043C","EPOCH":"2025-12-20T04:51:57.279456","MEAN_MOTION":13.16596499,"ECCENTRICITY":0.00011399,"INCLINATION":87.9057,"RA_OF_ASC_NODE":264.4065,"ARG_OF_PERICENTER":93.9197,"MEAN_ANOMALY":266.2064,"EPHEMERIS_TYPE":0,"CLASSIFICATION_TYPE":"U","NORAD_CAT_ID":56048,"ELEMENT_SET_NO":999,"REV_AT_EPOCH":13541,"BSTAR":0.00036024922,"MEAN_MOTION_DOT":1.51e-6,"MEAN_MOTION_DDOT":0},{"OBJECT_NAME":"ONEWEB-0547","OBJECT_ID":"2023-043D","EPOCH":"2025-12-20T05:26:44.666304","MEAN_MOTION":13.21826045,"ECCENTRICITY":0.00017649,"INCLINATION":87.9225,"RA_OF_ASC_NODE":279.6678,"ARG_OF_PERICENTER":70.93,"MEAN_ANOMALY":289.2025,"EPHEMERIS_TYPE":0,"CLASSIFICATION_TYPE":"U","NORAD_CAT_ID":56049,"ELEMENT_SET_NO":999,"REV_AT_EPOCH":13458,"BSTAR":8.0905079e-5,"MEAN_MOTION_DOT":4.6e-7,"MEAN_MOTION_DDOT":0},{"OBJECT_NAME":"ONEWEB-0548","OBJECT_ID":"2023-043E","EPOCH":"2025-12-20T05:27:18.168768","MEAN_MOTION":13.165948,"ECCENTRICITY":0.00020785,"INCLINATION":87.9043,"RA_OF_ASC_NODE":264.4072,"ARG_OF_PERICENTER":82.3204,"MEAN_ANOMALY":277.8163,"EPHEMERIS_TYPE":0,"CLASSIFICATION_TYPE":"U","NORAD_CAT_ID":56050,"ELEMENT_SET_NO":999,"REV_AT_EPOCH":13541,"BSTAR":-1.1884372e-5,"MEAN_MOTION_DOT":8.0e-8,"MEAN_MOTION_DDOT":0},{"OBJECT_NAME":"ONEWEB-0549","OBJECT_ID":"2023-043F","EPOCH":"2025-12-20T05:16:04.476864","MEAN_MOTION":13.21826209,"ECCENTRICITY":0.00017968,"INCLINATION":87.9224,"RA_OF_ASC_NODE":279.6836,"ARG_OF_PERICENTER":66.3753,"MEAN_ANOMALY":293.7569,"EPHEMERIS_TYPE":0,"CLASSIFICATION_TYPE":"U","NORAD_CAT_ID":56051,"ELEMENT_SET_NO":999,"REV_AT_EPOCH":13458,"BSTAR":0.00039109261,"MEAN_MOTION_DOT":1.75e-6,"MEAN_MOTION_DDOT":0},{"OBJECT_NAME":"ONEWEB-0550","OBJECT_ID":"2023-043G","EPOCH":"2025-12-20T01:19:05.462976","MEAN_MOTION":13.21823967,"ECCENTRICITY":0.00018393,"INCLINATION":87.9226,"RA_OF_ASC_NODE":279.7112,"ARG_OF_PERICENTER":79.8486,"MEAN_ANOMALY":280.2855,"EPHEMERIS_TYPE":0,"CLASSIFICATION_TYPE":"U","NORAD_CAT_ID":56052,"ELEMENT_SET_NO":999,"REV_AT_EPOCH":13456,"BSTAR":0.00037364179,"MEAN_MOTION_DOT":1.67e-6,"MEAN_MOTION_DDOT":0},{"OBJECT_NAME":"ONEWEB-0551","OBJECT_ID":"2023-043H","EPOCH":"2025-12-19T21:18:52.665120","MEAN_MOTION":13.15549369,"ECCENTRICITY":0.000189,"INCLINATION":87.8998,"RA_OF_ASC_NODE":295.0115,"ARG_OF_PERICENTER":71.5823,"MEAN_ANOMALY":288.5513,"EPHEMERIS_TYPE":0,"CLASSIFICATION_TYPE":"U","NORAD_CAT_ID":56053,"ELEMENT_SET_NO":999,"REV_AT_EPOCH":13282,"BSTAR":-0.00022635,"MEAN_MOTION_DOT":-7.2e-7,"MEAN_MOTION_DDOT":0},{"OBJECT_NAME":"ONEWEB-0552","OBJECT_ID":"2023-043J","EPOCH":"2025-12-19T08:50:58.254720","MEAN_MOTION":13.21826969,"ECCENTRICITY":0.0002016,"INCLINATION":87.9221,"RA_OF_ASC_NODE":279.8566,"ARG_OF_PERICENTER":70.6099,"MEAN_ANOMALY":289.5253,"EPHEMERIS_TYPE":0,"CLASSIFICATION_TYPE":"U","NORAD_CAT_ID":56054,"ELEMENT_SET_NO":999,"REV_AT_EPOCH":13447,"BSTAR":0.00023362,"MEAN_MOTION_DOT":1.1e-6,"MEAN_MOTION_DDOT":0},{"OBJECT_NAME":"ONEWEB-0553","OBJECT_ID":"2023-043K","EPOCH":"2025-12-20T05:01:04.040256","MEAN_MOTION":13.16596367,"ECCENTRICITY":0.00014934,"INCLINATION":87.9046,"RA_OF_ASC_NODE":264.4118,"ARG_OF_PERICENTER":85.8785,"MEAN_ANOMALY":274.2517,"EPHEMERIS_TYPE":0,"CLASSIFICATION_TYPE":"U","NORAD_CAT_ID":56055,"ELEMENT_SET_NO":999,"REV_AT_EPOCH":13542,"BSTAR":0.00066765402,"MEAN_MOTION_DOT":2.68e-6,"MEAN_MOTION_DDOT":0}]
