ONEWEB-0670             
1 55829U 23029AK  25354.18326624 -.00000193  00000+0 -55568-3 0  9992
2 55829  87.8994 325.4191 0002194  84.8987 275.2393 13.14503513135917
ONEWEB-0671             
1 55830U 23029AL  25354.21168529  .00000072  00000+0  14800-3 0  9994
2 55830  87.9198 340.5909 0001984  83.8878 276.2481 13.19726653135292
ONEWEB-0672             
1 55831U 23029AM  25353.92880519 -.00000094  00000+0 -26253-3 0  9993
2 55831  87.9209 310.1859 0001687  87.2999 272.8328 13.20770095137481
ONEWEB-0673             
1 55832U 23029AN  25354.03715956 -.00000072  00000+0 -21202-3 0  9994
2 55832  87.9213 340.6066 0001926  85.6396 274.4957 13.19726488135270
ONEWEB-0674             
1 55833U 23029AP  25353.99930896  .00000104  00000+0  24655-3 0  9990
2 55833  87.8990 325.4333 0002286  87.3115 272.8277 13.14503750135871
ONEWEB-0675             
1 55834U 23029AQ  25353.97634786  .00000010  00000+0 -69564-5 0  9995
2 55834  87.9193 340.6455 0001528  86.0718 274.0589 13.19725384135284
ONEWEB-0720             
1 55835U 23029AR  25354.04426462 -.00000075  00000+0 -21974-3 0  9998
2 55835  87.9193 340.6304 0001970  76.2734 283.8618 13.19725293135211
ONEWEB-0537             
1 56046U 23043A   25353.68977186  .00000053  00000+0  10383-3 0  9998
2 56046  87.9053 264.5124 0001444  76.3525 283.7767 13.16596064135347
ONEWEB-0538             
1 56047U 23043B   25354.21540640  .00000167  00000+0  40377-3 0  9992
2 56047  87.9047 264.4115 0001481  65.1047 295.0237 13.16596909135421
ONEWEB-0546             
1 56048U 23043C   25354.20274629  .00000151  00000+0  36025-3 0  9991
2 56048  87.9057 264.4065 0001139  93.9197 266.2064 13.16596499135413
ONEWEB-0547             
1 56049U 23043D   25354.22690586  .00000046  00000+0  80905-4 0  9998
2 56049  87.9225 279.6678 0001764  70.9300 289.2025 13.21826045134582
ONEWEB-0548             
1 56050U 23043E   25354.22729362  .00000008  00000+0 -11884-4 0  9994
2 56050  87.9043 264.4072 0002078  82.3204 277.8163 13.16594800135415
ONEWEB-0549             
1 56051U 23043F   25354.21949626  .00000175  00000+0  39109-3 0  9994
2 56051  87.9224 279.6836 0001796  66.3753 293.7569 13.21826209134581
ONEWEB-0550             
1 56052U 23043G   25354.05492434  .00000167  00000+0  37364-3 0  9999
2 56052  87.9226 279.7112 0001839  79.8486 280.2855 13.21823967134567
ONEWEB-0551             
1 56053U 23043H   25353.88810955 -.00000072  00000+0 -22635-3 0  9994
2 56053  87.8998 295.0115 0001890  71.5823 288.5513 13.15549369132821
ONEWEB-0552             
1 56054U 23043J   25353.36872980  .00000110  00000+0  23362-3 0  9993
2 56054  87.9221 279.8566 0002016  70.6099 289.5253 13.21826969134474
ONEWEB-0553             
1 56055U 23043K   25354.20907454  .00000268  00000+0  66765-3 0  9991
2 56055  87.9046 264.4118 0001493  85.8785 274.2517 13.16596367135421
